{
  "norad_id": 55490,
  "name": "STARLINK-5373",
  "history": [
    {
      "epoch": "2026-03-28T17:42:12.371616Z",
      "apogee_km": 486.5210180338554,
      "perigee_km": 484.5731044972681,
      "latitude_deg": 7.491809307244356e-06,
      "longitude_deg": 139.99116942138025,
      "height_km": 485.44014146364236,
      "semi_major_axis_km": 6863.6840612655615,
      "eccentricity": 0.0001419,
      "inclination_deg": 43.0018,
      "raan_deg": 231.6965,
      "arg_perigee_deg": 263.1535,
      "mean_anomaly_deg": 96.9155,
      "mean_motion_rev_day": 15.26746156
    }
  ]
}