{"fetched_at":"2026-03-29T16:36:15Z","count":15609,"tles":[{"name":"STARLINK-5373","line1":"1 55490U 23015AT  26087.73764319  .00001297  00000+0  58032-4 0  9997","line2":"2 55490  43.0018 231.6965 0001419 263.1535  96.9155 15.26746156173518","category":"Starlink"}]}